{
  "type": "FeatureCollection",
  "features": [
    {
      "type": "Feature",
      "properties": {
        "norad_id": 34497,
        "name": "IRIDIUM 33 DEB",
        "group": "iridium-33-debris",
        "lat": 48.90253247348987,
        "lon": 50.49255647347265,
        "alt_km": 820.6923889412728,
        "timestamp": "2025-12-27T05:29:39.588962+00:00",
        "meta_object_name": "IRIDIUM 33 DEB",
        "meta_object_id": "1997-051GN",
        "meta_epoch": "2025-12-22T21:33:03.136608",
        "meta_mean_motion": 14.27482363,
        "meta_eccentricity": 0.00780484,
        "meta_inclination": 86.2769,
        "meta_ra_of_asc_node": 48.0617,
        "meta_arg_of_pericenter": 306.2683,
        "meta_mean_anomaly": 179.2919,
        "meta_ephemeris_type": 0,
        "meta_classification_type": "U",
        "meta_norad_cat_id": 34497,
        "meta_element_set_no": 999,
        "meta_rev_at_epoch": 87028,
        "meta_bstar": 0.00056228088,
        "meta_mean_motion_dot": 1.443e-05,
        "meta_mean_motion_ddot": 0,
        "tle_line1": "1 34497U 97051GN  25356.89795297  .00001443  00000+0  56228-3 0  9993",
        "tle_line2": "2 34497  86.2769  48.0617 0078048 306.2683 179.2919 14.27482363870281"
      },
      "geometry": {
        "type": "Point",
        "coordinates": [
          50.49255647347265,
          48.90253247348987
        ]
      }
    },
    {
      "type": "Feature",
      "properties": {
        "norad_id": 34508,
        "name": "IRIDIUM 33 DEB",
        "group": "iridium-33-debris",
        "lat": 58.648182425415314,
        "lon": 102.48147860002304,
        "alt_km": 739.3463614782477,
        "timestamp": "2025-12-27T05:29:39.588972+00:00",
        "meta_object_name": "IRIDIUM 33 DEB",
        "meta_object_id": "1997-051GZ",
        "meta_epoch": "2025-12-26T19:12:17.155584",
        "meta_mean_motion": 14.38532192,
        "meta_eccentricity": 0.00667146,
        "meta_inclination": 86.3698,
        "meta_ra_of_asc_node": 96.6821,
        "meta_arg_of_pericenter": 127.9184,
        "meta_mean_anomaly": 232.8072,
        "meta_ephemeris_type": 0,
        "meta_classification_type": "U",
        "meta_norad_cat_id": 34508,
        "meta_element_set_no": 999,
        "meta_rev_at_epoch": 87511,
        "meta_bstar": 0.0012424793,
        "meta_mean_motion_dot": 3.917e-05,
        "meta_mean_motion_ddot": 0,
        "tle_line1": "1 34508U 97051GZ  25360.80019856  .00003917  00000+0  12425-2 0  9990",
        "tle_line2": "2 34508  86.3698  96.6821 0066714 127.9184 232.8072 14.38532192875114"
      },
      "geometry": {
        "type": "Point",
        "coordinates": [
          102.48147860002304,
          58.648182425415314
        ]
      }
    },
    {
      "type": "Feature",
      "properties": {
        "norad_id": 34521,
        "name": "IRIDIUM 33 DEB",
        "group": "iridium-33-debris",
        "lat": 82.53701383235959,
        "lon": 175.25887458424793,
        "alt_km": 673.5076806154266,
        "timestamp": "2025-12-27T05:29:39.588983+00:00",
        "meta_object_name": "IRIDIUM 33 DEB",
        "meta_object_id": "1997-051HN",
        "meta_epoch": "2025-12-26T12:38:41.834976",
        "meta_mean_motion": 14.63480775,
        "meta_eccentricity": 0.0003338,
        "meta_inclination": 86.379,
        "meta_ra_of_asc_node": 24.4764,
        "meta_arg_of_pericenter": 162.7334,
        "meta_mean_anomaly": 197.3992,
        "meta_ephemeris_type": 0,
        "meta_classification_type": "U",
        "meta_norad_cat_id": 34521,
        "meta_element_set_no": 999,
        "meta_rev_at_epoch": 88674,
        "meta_bstar": 0.00091376,
        "meta_mean_motion_dot": 4.754e-05,
        "meta_mean_motion_ddot": 0,
        "tle_line1": "1 34521U 97051HN  25360.52687309  .00004754  00000+0  91376-3 0  9991",
        "tle_line2": "2 34521  86.3790  24.4764 0003338 162.7334 197.3992 14.63480775886748"
      },
      "geometry": {
        "type": "Point",
        "coordinates": [
          175.25887458424793,
          82.53701383235959
        ]
      }
    },
    {
      "type": "Feature",
      "properties": {
        "norad_id": 34525,
        "name": "IRIDIUM 33 DEB",
        "group": "iridium-33-debris",
        "lat": -72.01595676245472,
        "lon": 29.386281620866498,
        "alt_km": 759.1969302337502,
        "timestamp": "2025-12-27T05:29:39.588993+00:00",
        "meta_object_name": "IRIDIUM 33 DEB",
        "meta_object_id": "1997-051HS",
        "meta_epoch": "2025-12-26T20:39:51.981984",
        "meta_mean_motion": 14.42938398,
        "meta_eccentricity": 0.00061311,
        "meta_inclination": 86.3717,
        "meta_ra_of_asc_node": 40.8155,
        "meta_arg_of_pericenter": 62.2892,
        "meta_mean_anomaly": 115.4959,
        "meta_ephemeris_type": 0,
        "meta_classification_type": "U",
        "meta_norad_cat_id": 34525,
        "meta_element_set_no": 999,
        "meta_rev_at_epoch": 88291,
        "meta_bstar": 0.00035622857,
        "meta_mean_motion_dot": 1.21e-05,
        "meta_mean_motion_ddot": 0,
        "tle_line1": "1 34525U 97051HS  25360.86101831  .00001210  00000+0  35623-3 0  9990",
        "tle_line2": "2 34525  86.3717  40.8155 0006131  62.2892 115.4959 14.42938398882919"
      },
      "geometry": {
        "type": "Point",
        "coordinates": [
          29.386281620866498,
          -72.01595676245472
        ]
      }
    },
    {
      "type": "Feature",
      "properties": {
        "norad_id": 34529,
        "name": "IRIDIUM 33 DEB",
        "group": "iridium-33-debris",
        "lat": 62.33408376169654,
        "lon": 36.20295303183849,
        "alt_km": 749.1577348799974,
        "timestamp": "2025-12-27T05:29:39.589021+00:00",
        "meta_object_name": "IRIDIUM 33 DEB",
        "meta_object_id": "1997-051HW",
        "meta_epoch": "2025-12-26T14:12:06.788736",
        "meta_mean_motion": 14.40627159,
        "meta_eccentricity": 0.0006309,
        "meta_inclination": 86.3628,
        "meta_ra_of_asc_node": 29.5057,
        "meta_arg_of_pericenter": 138.1705,
        "meta_mean_anomaly": 221.9977,
        "meta_ephemeris_type": 0,
        "meta_classification_type": "U",
        "meta_norad_cat_id": 34529,
        "meta_element_set_no": 999,
        "meta_rev_at_epoch": 88341,
        "meta_bstar": 0.00013424,
        "meta_mean_motion_dot": 4.48e-06,
        "meta_mean_motion_ddot": 0,
        "tle_line1": "1 34529U 97051HW  25360.59174524  .00000448  00000+0  13424-3 0  9990",
        "tle_line2": "2 34529  86.3628  29.5057 0006309 138.1705 221.9977 14.40627159883419"
      },
      "geometry": {
        "type": "Point",
        "coordinates": [
          36.20295303183849,
          62.33408376169654
        ]
      }
    },
    {
      "type": "Feature",
      "properties": {
        "norad_id": 34538,
        "name": "IRIDIUM 33 DEB",
        "group": "iridium-33-debris",
        "lat": 7.7474693324142505,
        "lon": -0.2840825126102485,
        "alt_km": 751.4891200016082,
        "timestamp": "2025-12-27T05:29:39.589033+00:00",
        "meta_object_name": "IRIDIUM 33 DEB",
        "meta_object_id": "1997-051JF",
        "meta_epoch": "2025-12-26T18:05:01.336416",
        "meta_mean_motion": 14.42730445,
        "meta_eccentricity": 0.0031825,
        "meta_inclination": 86.2767,
        "meta_ra_of_asc_node": 359.4165,
        "meta_arg_of_pericenter": 279.2395,
        "meta_mean_anomaly": 140.4767,
        "meta_ephemeris_type": 0,
        "meta_classification_type": "U",
        "meta_norad_cat_id": 34538,
        "meta_element_set_no": 999,
        "meta_rev_at_epoch": 87958,
        "meta_bstar": 0.00099526831,
        "meta_mean_motion_dot": 3.352e-05,
        "meta_mean_motion_ddot": 0,
        "tle_line1": "1 34538U 97051JF  25360.75348769  .00003352  00000+0  99527-3 0  9997",
        "tle_line2": "2 34538  86.2767 359.4165 0031825 279.2395 140.4767 14.42730445879580"
      },
      "geometry": {
        "type": "Point",
        "coordinates": [
          -0.2840825126102485,
          7.7474693324142505
        ]
      }
    },
    {
      "type": "Feature",
      "properties": {
        "norad_id": 34540,
        "name": "IRIDIUM 33 DEB",
        "group": "iridium-33-debris",
        "lat": -27.475119482885486,
        "lon": -60.94039164964817,
        "alt_km": 658.7806748677058,
        "timestamp": "2025-12-27T05:29:39.589044+00:00",
        "meta_object_name": "IRIDIUM 33 DEB",
        "meta_object_id": "1997-051JH",
        "meta_epoch": "2025-12-26T07:30:51.838272",
        "meta_mean_motion": 14.75597732,
        "meta_eccentricity": 0.001844,
        "meta_inclination": 86.311,
        "meta_ra_of_asc_node": 301.401,
        "meta_arg_of_pericenter": 114.305,
        "meta_mean_anomaly": 36.5387,
        "meta_ephemeris_type": 0,
        "meta_classification_type": "U",
        "meta_norad_cat_id": 34540,
        "meta_element_set_no": 999,
        "meta_rev_at_epoch": 89221,
        "meta_bstar": 0.0015802,
        "meta_mean_motion_dot": 0.00010835,
        "meta_mean_motion_ddot": 0,
        "tle_line1": "1 34540U 97051JH  25360.31309998  .00010835  00000+0  15802-2 0  9990",
        "tle_line2": "2 34540  86.3110 301.4010 0018440 114.3050  36.5387 14.75597732892211"
      },
      "geometry": {
        "type": "Point",
        "coordinates": [
          -60.94039164964817,
          -27.475119482885486
        ]
      }
    }
  ]
}